QIANFAN-9               
1 60387U 24140J   25281.58173808  .00000070  00000+0  90136-4 0  9992
2 60387  88.9756 306.0918 0017217  32.8220 327.3997 13.50973223 58537
QIANFAN-10              
1 60388U 24140K   25281.58587726  .00000059  00000+0  73338-4 0  9993
2 60388  88.9765 305.4324 0014901  11.8327 348.3171 13.50970157 58668
QIANFAN-11              
1 60389U 24140L   25281.62286802  .00000048  00000+0  55405-4 0  9993
2 60389  88.9692 306.0643 0015257  33.2619 326.9488 13.50970758 58329
QIANFAN-12              
1 60390U 24140M   25281.56932729  .00000054  00000+0  65074-4 0  9994
2 60390  88.9736 306.0848 0014349  41.5549 318.6690 13.50970976 58440
QIANFAN-13              
1 60391U 24140N   25281.61460870  .00000053  00000+0  63746-4 0  9997
2 60391  88.9745 306.1719 0014245  43.9770 316.2512 13.50971128 58476
QIANFAN-14              
1 60392U 24140P   25281.56514714  .00000050  00000+0  58904-4 0  9996
2 60392  88.9724 306.0886 0017911  42.5104 317.7431 13.50971737 58479
QIANFAN-15              
1 60393U 24140Q   25281.57338334  .00000060  00000+0  73868-4 0  9997
2 60393  88.9750 306.0288 0013303  31.7385 328.4566 13.50975397 58460
QIANFAN-16              
1 60394U 24140R   25281.56118093  .00000043  00000+0  47691-4 0  9991
2 60394  88.9753 306.1482 0015966  46.8238 313.4245 13.50970751 58379
